[{"OBJECT_NAME":"ONEWEB-0185","OBJECT_ID":"2021-031L","EPOCH":"2026-03-09T17:33:55.258848","MEAN_MOTION":13.14501597,"ECCENTRICITY":0.0001793,"INCLINATION":87.8986,"RA_OF_ASC_NODE":309.5376,"ARG_OF_PERICENTER":69.2834,"MEAN_ANOMALY":290.8488,"EPHEMERIS_TYPE":0,"CLASSIFICATION_TYPE":"U","NORAD_CAT_ID":48220,"ELEMENT_SET_NO":999,"REV_AT_EPOCH":23518,"BSTAR":0.00076662617,"MEAN_MOTION_DOT":2.97e-6,"MEAN_MOTION_DDOT":0},{"OBJECT_NAME":"UNKNOWN","OBJECT_ID":"","EPOCH":"2026-02-26T07:23:49.162560","MEAN_MOTION":12.79652995,"ECCENTRICITY":0.03960639,"INCLINATION":63.2026,"RA_OF_ASC_NODE":267.2688,"ARG_OF_PERICENTER":21.397,"MEAN_ANOMALY":340.3073,"EPHEMERIS_TYPE":0,"CLASSIFICATION_TYPE":"U","NORAD_CAT_ID":270133,"ELEMENT_SET_NO":999,"REV_AT_EPOCH":29206,"BSTAR":0.0011605296,"MEAN_MOTION_DOT":2.89e-6,"MEAN_MOTION_DDOT":0}]
